*******************************************************************************
Ephemeris / WWW_USER Mon Mar 10 07:20:45 2025 Pasadena, USA      / Horizons    
*******************************************************************************
Target body name: (2018 PC20)                     {source: JPL#4}
Center body name: Earth (399)                     {source: DE441}
Center-site name: Mauna Kea
*******************************************************************************
Start time      : A.D. 2018-Dec-20 03:57:00.0000 UT      
Stop  time      : A.D. 2018-Dec-20 16:41:00.0000 UT      
Step-size       : 1 minutes
*******************************************************************************
Target pole/equ : undefined
Target radii    : undefined                                                    
Center geodetic : 204.5278, 19.8260847, 4.21024   {E-lon(deg),Lat(deg),Alt(km)}
Center cylindric: 204.5278, 6006.35451, 2151.0229 {E-lon(deg),Dxy(km),Dz(km)}
Center pole/equ : ITRF93                          {East-longitude positive}
Center radii    : 6378.137, 6378.137, 6356.752 km {Equator_a, b, pole_c}       
Target primary  : Sun
Vis. interferer : MOON (R_eq= 1737.400) km        {source: DE441}
Rel. light bend : Sun                             {source: DE441}
Rel. lght bnd GM: 1.3271E+11 km^3/s^2                                          
Small-body perts: Yes                             {source: SB441-N16}
Atmos refraction: NO (AIRLESS)
RA format       : HMS
Time format     : CAL 
Calendar mode   : Mixed Julian/Gregorian
RTS-only print  : NO       
EOP file        : eop.250307.p250603                                           
EOP coverage    : DATA-BASED 1962-JAN-20 TO 2025-MAR-07. PREDICTS-> 2025-JUN-02
Units conversion: 1 au= 149597870.700 km, c= 299792.458 km/s, 1 day= 86400.0 s 
Table cut-offs 1: Elevation (-90.0deg=NO ),Airmass (>38.000=NO), Daylight (YES)
Table cut-offs 2: Solar elongation (  0.0,180.0=NO ),Local Hour Angle( 0.0=NO )
Table cut-offs 3: RA/DEC angular rate (     0.0=NO )                           
*******************************************************************************
Initial IAU76/J2000 heliocentric ecliptic osculating elements (au, days, deg.):
  EPOCH=  2458343.5 ! 2018-Aug-13.00 (TDB)         Residual RMS= .24519        
   EC= .404352607301711    QR= 1.018354806317198   TP= 2458318.6524357731      
   OM= 139.299704166656    W=  153.5303944744985   IN= 8.986086735514593       
  Equivalent ICRF heliocentric cartesian coordinates (au, au/d):
   X= 8.116079301925467E-01  Y=-6.140581064636024E-01  Z=-2.698058679324596E-01
  VX= 1.436448164656351E-02 VY= 1.329561442287599E-02 VZ= 2.429594529488231E-03
Asteroid physical parameters (km, seconds, rotational period in hours):        
   GM= n.a.                RAD= n.a.               ROTPER= n.a.                
   H= 25.2                 G= .150                 B-V= n.a.                   
                           ALBEDO= n.a.            STYP= n.a.                  
*******************************************************************************
 Date__(UT)__HR:MN     R.A._________(ICRF)_________DEC
******************************************************
$$SOE
 2018-Dec-20 03:57 Cm  01 11 30.327921 -06 43 33.05595
 2018-Dec-20 03:58 Cm  01 11 30.379314 -06 43 32.39633
 2018-Dec-20 03:59 Cm  01 11 30.430703 -06 43 31.73670
 2018-Dec-20 04:00 Cm  01 11 30.482089 -06 43 31.07705
 2018-Dec-20 04:01 Cm  01 11 30.533471 -06 43 30.41739
 2018-Dec-20 04:02 Cm  01 11 30.584850 -06 43 29.75772
 2018-Dec-20 04:03 Cm  01 11 30.636225 -06 43 29.09804
 2018-Dec-20 04:04 Cm  01 11 30.687597 -06 43 28.43835
 2018-Dec-20 04:05 Cm  01 11 30.738966 -06 43 27.77864
 2018-Dec-20 04:06 Cm  01 11 30.790331 -06 43 27.11892
 2018-Dec-20 04:07 Cm  01 11 30.841693 -06 43 26.45919
 2018-Dec-20 04:08 Cm  01 11 30.893052 -06 43 25.79945
 2018-Dec-20 04:09 Cm  01 11 30.944407 -06 43 25.13969
 2018-Dec-20 04:10 Cm  01 11 30.995760 -06 43 24.47992
 2018-Dec-20 04:11 Cm  01 11 31.047109 -06 43 23.82014
 2018-Dec-20 04:12 Nm  01 11 31.098455 -06 43 23.16034
 2018-Dec-20 04:13 Nm  01 11 31.149798 -06 43 22.50054
 2018-Dec-20 04:14 Nm  01 11 31.201138 -06 43 21.84071
 2018-Dec-20 04:15 Nm  01 11 31.252475 -06 43 21.18088
 2018-Dec-20 04:16 Nm  01 11 31.303809 -06 43 20.52104
 2018-Dec-20 04:17 Nm  01 11 31.355140 -06 43 19.86118
 2018-Dec-20 04:18 Nm  01 11 31.406469 -06 43 19.20131
 2018-Dec-20 04:19 Nm  01 11 31.457794 -06 43 18.54142
 2018-Dec-20 04:20 Nm  01 11 31.509117 -06 43 17.88152
 2018-Dec-20 04:21 Nm  01 11 31.560437 -06 43 17.22162
 2018-Dec-20 04:22 Nm  01 11 31.611754 -06 43 16.56169
 2018-Dec-20 04:23 Nm  01 11 31.663068 -06 43 15.90176
 2018-Dec-20 04:24 Nm  01 11 31.714380 -06 43 15.24181
 2018-Dec-20 04:25 Nm  01 11 31.765689 -06 43 14.58185
 2018-Dec-20 04:26 Nm  01 11 31.816996 -06 43 13.92187
 2018-Dec-20 04:27 Nm  01 11 31.868300 -06 43 13.26188
 2018-Dec-20 04:28 Nm  01 11 31.919601 -06 43 12.60188
 2018-Dec-20 04:29 Nm  01 11 31.970900 -06 43 11.94187
 2018-Dec-20 04:30 Nm  01 11 32.022197 -06 43 11.28184
 2018-Dec-20 04:31 Nm  01 11 32.073491 -06 43 10.62180
 2018-Dec-20 04:32 Nm  01 11 32.124783 -06 43 09.96175
 2018-Dec-20 04:33 Nm  01 11 32.176072 -06 43 09.30168
 2018-Dec-20 04:34 Nm  01 11 32.227360 -06 43 08.64161
 2018-Dec-20 04:35 Nm  01 11 32.278645 -06 43 07.98151
 2018-Dec-20 04:36 Nm  01 11 32.329927 -06 43 07.32141
 2018-Dec-20 04:37 Nm  01 11 32.381208 -06 43 06.66129
 2018-Dec-20 04:38 Nm  01 11 32.432487 -06 43 06.00116
 2018-Dec-20 04:39 Am  01 11 32.483763 -06 43 05.34101
 2018-Dec-20 04:40 Am  01 11 32.535037 -06 43 04.68085
 2018-Dec-20 04:41 Am  01 11 32.586310 -06 43 04.02068
 2018-Dec-20 04:42 Am  01 11 32.637580 -06 43 03.36050
 2018-Dec-20 04:43 Am  01 11 32.688848 -06 43 02.70030
 2018-Dec-20 04:44 Am  01 11 32.740115 -06 43 02.04009
 2018-Dec-20 04:45 Am  01 11 32.791380 -06 43 01.37986
 2018-Dec-20 04:46 Am  01 11 32.842642 -06 43 00.71963
 2018-Dec-20 04:47 Am  01 11 32.893904 -06 43 00.05938
 2018-Dec-20 04:48 Am  01 11 32.945163 -06 42 59.39911
 2018-Dec-20 04:49 Am  01 11 32.996420 -06 42 58.73883
 2018-Dec-20 04:50 Am  01 11 33.047676 -06 42 58.07854
 2018-Dec-20 04:51 Am  01 11 33.098931 -06 42 57.41824
 2018-Dec-20 04:52 Am  01 11 33.150183 -06 42 56.75792
 2018-Dec-20 04:53 Am  01 11 33.201435 -06 42 56.09759
 2018-Dec-20 04:54 Am  01 11 33.252684 -06 42 55.43724
 2018-Dec-20 04:55 Am  01 11 33.303932 -06 42 54.77688
 2018-Dec-20 04:56 Am  01 11 33.355179 -06 42 54.11651
 2018-Dec-20 04:57 Am  01 11 33.406424 -06 42 53.45613
 2018-Dec-20 04:58 Am  01 11 33.457668 -06 42 52.79573
 2018-Dec-20 04:59 Am  01 11 33.508911 -06 42 52.13531
 2018-Dec-20 05:00 Am  01 11 33.560152 -06 42 51.47489
 2018-Dec-20 05:01 Am  01 11 33.611392 -06 42 50.81445
 2018-Dec-20 05:02 Am  01 11 33.662631 -06 42 50.15400
 2018-Dec-20 05:03 Am  01 11 33.713869 -06 42 49.49353
 2018-Dec-20 05:04 Am  01 11 33.765106 -06 42 48.83305
 2018-Dec-20 05:05 Am  01 11 33.816341 -06 42 48.17256
 2018-Dec-20 05:06  m  01 11 33.867576 -06 42 47.51205
 2018-Dec-20 05:07  m  01 11 33.918809 -06 42 46.85153
 2018-Dec-20 05:08  m  01 11 33.970042 -06 42 46.19099
 2018-Dec-20 05:09  m  01 11 34.021273 -06 42 45.53045
 2018-Dec-20 05:10  m  01 11 34.072504 -06 42 44.86988
 2018-Dec-20 05:11  m  01 11 34.123734 -06 42 44.20931
 2018-Dec-20 05:12  m  01 11 34.174963 -06 42 43.54872
 2018-Dec-20 05:13  m  01 11 34.226191 -06 42 42.88812
 2018-Dec-20 05:14  m  01 11 34.277419 -06 42 42.22750
 2018-Dec-20 05:15  m  01 11 34.328645 -06 42 41.56687
 2018-Dec-20 05:16  m  01 11 34.379872 -06 42 40.90623
 2018-Dec-20 05:17  m  01 11 34.431097 -06 42 40.24557
 2018-Dec-20 05:18  m  01 11 34.482322 -06 42 39.58490
 2018-Dec-20 05:19  m  01 11 34.533547 -06 42 38.92422
 2018-Dec-20 05:20  m  01 11 34.584770 -06 42 38.26352
 2018-Dec-20 05:21  m  01 11 34.635994 -06 42 37.60281
 2018-Dec-20 05:22  m  01 11 34.687217 -06 42 36.94208
 2018-Dec-20 05:23  m  01 11 34.738440 -06 42 36.28134
 2018-Dec-20 05:24  m  01 11 34.789662 -06 42 35.62059
 2018-Dec-20 05:25  m  01 11 34.840884 -06 42 34.95983
 2018-Dec-20 05:26  m  01 11 34.892106 -06 42 34.29905
 2018-Dec-20 05:27  m  01 11 34.943327 -06 42 33.63825
 2018-Dec-20 05:28  m  01 11 34.994549 -06 42 32.97744
 2018-Dec-20 05:29  m  01 11 35.045770 -06 42 32.31662
 2018-Dec-20 05:30  m  01 11 35.096991 -06 42 31.65579
 2018-Dec-20 05:31  m  01 11 35.148212 -06 42 30.99494
 2018-Dec-20 05:32  m  01 11 35.199433 -06 42 30.33408
 2018-Dec-20 05:33  m  01 11 35.250654 -06 42 29.67320
 2018-Dec-20 05:34  m  01 11 35.301875 -06 42 29.01231
 2018-Dec-20 05:35  m  01 11 35.353096 -06 42 28.35141
 2018-Dec-20 05:36  m  01 11 35.404318 -06 42 27.69049
 2018-Dec-20 05:37  m  01 11 35.455539 -06 42 27.02956
 2018-Dec-20 05:38  m  01 11 35.506761 -06 42 26.36862
 2018-Dec-20 05:39  m  01 11 35.557983 -06 42 25.70766
 2018-Dec-20 05:40  t  01 11 35.609205 -06 42 25.04669
 2018-Dec-20 05:41  m  01 11 35.660428 -06 42 24.38571
 2018-Dec-20 05:42  m  01 11 35.711651 -06 42 23.72471
 2018-Dec-20 05:43  m  01 11 35.762874 -06 42 23.06369
 2018-Dec-20 05:44  m  01 11 35.814098 -06 42 22.40267
 2018-Dec-20 05:45  m  01 11 35.865322 -06 42 21.74163
 2018-Dec-20 05:46  m  01 11 35.916547 -06 42 21.08057
 2018-Dec-20 05:47  m  01 11 35.967772 -06 42 20.41951
 2018-Dec-20 05:48  m  01 11 36.018998 -06 42 19.75843
 2018-Dec-20 05:49  m  01 11 36.070225 -06 42 19.09733
 2018-Dec-20 05:50  m  01 11 36.121452 -06 42 18.43622
 2018-Dec-20 05:51  m  01 11 36.172680 -06 42 17.77510
 2018-Dec-20 05:52  m  01 11 36.223909 -06 42 17.11397
 2018-Dec-20 05:53  m  01 11 36.275139 -06 42 16.45282
 2018-Dec-20 05:54  m  01 11 36.326369 -06 42 15.79165
 2018-Dec-20 05:55  m  01 11 36.377600 -06 42 15.13048
 2018-Dec-20 05:56  m  01 11 36.428833 -06 42 14.46929
 2018-Dec-20 05:57  m  01 11 36.480066 -06 42 13.80808
 2018-Dec-20 05:58  m  01 11 36.531300 -06 42 13.14687
 2018-Dec-20 05:59  m  01 11 36.582535 -06 42 12.48563
